NORAD_CAT_ID,OBJECT_NAME,OBJECT_TYPE,EPOCH,MEAN_MOTION,ECCENTRICITY,INCLINATION,RA_OF_ASC_NODE,ARG_OF_PERICENTER,MEAN_ANOMALY,BSTAR,MEAN_MOTION_DOT,MEAN_MOTION_DDOT,TLE_LINE0,TLE_LINE1,TLE_LINE2,SEMIMAJOR_AXIS,PERIOD,APOGEE,PERIGEE,DECAYED
54074.0,STARLINK-5192,PAYLOAD,2024-01-11 22:11:33,15.08840352,0.0001695,53.2154,280.1498,126.9643,233.1504,6.1463e-05,6.9e-06,0.0,0 STARLINK-5192,1 54074U 22136Z   24011.92468830  .00000690  00000-0  61463-4 0  9991,2 54074  53.2154 280.1498 0001695 126.9643 233.1504 15.08840352 67924,6917.879,95.438,540.917,538.572,0.0
54074.0,STARLINK-5192,PAYLOAD,2024-01-12 02:57:42,15.08845865,0.0001484,53.2163,279.2593,99.0853,261.0308,0.00015945,2.251e-05,0.0,0 STARLINK-5192,1 54074U 22136Z   24012.12340773  .00002251  00000-0  15945-3 0  9997,2 54074  53.2163 279.2593 0001484  99.0853 261.0308 15.08845865 68431,6917.862,95.437,540.754,538.701,0.0
54074.0,STARLINK-5192,PAYLOAD,2024-01-12 22:02:20,15.08837355,0.0001573,53.2165,275.6869,135.6469,224.465,-5.9453e-05,-1.234e-05,0.0,0 STARLINK-5192,1 54074U 22136Z   24012.91829138 -.00001234  00000-0 -59453-4 0  9996,2 54074  53.2165 275.6869 0001573 135.6469 224.4650 15.08837355 68076,6917.888,95.438,540.842,538.665,0.0
54074.0,STARLINK-5192,PAYLOAD,2024-01-12 23:37:43,15.08839905,0.000139,53.2168,275.3916,99.5188,260.5961,3.9701e-05,3.44e-06,0.0,0 STARLINK-5192,1 54074U 22136Z   24012.98453320  .00000344  00000-0  39701-4 0  9992,2 54074  53.2168 275.3916 0001390  99.5188 260.5961 15.08839905 68565,6917.881,95.438,540.707,538.784,0.0
54074.0,STARLINK-5192,PAYLOAD,2024-01-13 23:28:30,15.08851091,0.0001435,53.2152,270.9345,80.5672,279.5483,0.00038711,5.88e-05,0.0,0 STARLINK-5192,1 54074U 22136Z   24013.97813360  .00005880  00000-0  38711-3 0  9995,2 54074  53.2152 270.9345 0001435  80.5672 279.5483 15.08851091 68719,6917.846,95.437,540.704,538.719,0.0
54074.0,STARLINK-5192,PAYLOAD,2024-01-14 20:08:31,15.08850518,0.0001525,53.2149,267.0688,95.6159,264.5007,0.00024566,3.625e-05,0.0,0 STARLINK-5192,1 54074U 22136Z   24014.83925165  .00003625  00000-0  24566-3 0  9996,2 54074  53.2149 267.0688 0001525  95.6159 264.5007 15.08850518 68842,6917.848,95.437,540.768,538.658,0.0
54074.0,STARLINK-5192,PAYLOAD,2024-01-14 21:43:54,15.08852796,0.0001619,53.2161,266.7699,109.7671,250.3495,0.00024205,3.568e-05,0.0,0 STARLINK-5192,1 54074U 22136Z   24014.90548928  .00003568  00000-0  24205-3 0  9998,2 54074  53.2161 266.7699 0001619 109.7671 250.3495 15.08852796 68376,6917.841,95.437,540.826,538.586,0.0
54074.0,STARLINK-5192,PAYLOAD,2024-01-15 02:30:03,15.0885949,0.000134,53.2152,265.8768,102.5669,257.5473,0.00044557,6.814e-05,0.0,0 STARLINK-5192,1 54074U 22136Z   24015.10420676  .00006814  00000-0  44557-3 0  9999,2 54074  53.2152 265.8768 0001340 102.5669 257.5473 15.08859490 68409,6917.821,95.436,540.613,538.759,0.0
54074.0,STARLINK-5192,PAYLOAD,2024-01-15 19:59:18,15.08842472,0.0002068,53.2167,262.5992,131.5728,228.5442,4.4605e-05,4.22e-06,0.0,0 STARLINK-5192,1 54074U 22136Z   24015.83284751  .00000422  00000-0  44605-4 0  9995,2 54074  53.2167 262.5992 0002068 131.5728 228.5442 15.08842472 68512,6917.873,95.437,541.168,538.307,0.0
54074.0,STARLINK-5192,PAYLOAD,2024-01-16 02:20:50,15.08841612,0.000145,53.2161,261.4143,110.6145,249.5003,1.6033e-05,-3.3e-07,0.0,0 STARLINK-5192,1 54074U 22136Z   24016.09781024 -.00000033  00000-0  16033-4 0  9992,2 54074  53.2161 261.4143 0001450 110.6145 249.5003 15.08841612 69036,6917.875,95.437,540.744,538.737,0.0
54074.0,STARLINK-5192,PAYLOAD,2024-01-16 21:25:28,15.08839493,0.0001494,53.2163,257.8432,113.7794,246.3355,2.8597e-05,1.67e-06,0.0,0 STARLINK-5192,1 54074U 22136Z   24016.89269334  .00000167  00000-0  28597-4 0  9990,2 54074  53.2163 257.8432 0001494 113.7794 246.3355 15.08839493 68678,6917.882,95.438,540.78,538.713,0.0
54074.0,STARLINK-5192,PAYLOAD,2024-01-16 23:00:51,15.08841083,0.0001384,53.216,257.5481,106.6629,253.4515,1.6046e-06,-2.62e-06,0.0,0 STARLINK-5192,1 54074U 22136Z   24016.95893316 -.00000262  00000-0  16046-5 0  9994,2 54074  53.2160 257.5481 0001384 106.6629 253.4515 15.08841083 68688,6917.877,95.437,540.7,538.785,0.0
54074.0,STARLINK-5192,PAYLOAD,2024-01-17 19:40:53,15.08829632,0.0001553,53.2163,253.6827,107.814,252.3021,0.00015258,2.14e-05,0.0,0 STARLINK-5192,1 54074U 22136Z   24017.82006307  .00002140  00000-0  15258-3 0  9995,2 54074  53.2163 253.6827 0001553 107.8140 252.3021 15.08829632 69295,6917.912,95.438,540.851,538.703,0.0
54074.0,STARLINK-5192,PAYLOAD,2024-01-17 21:16:16,15.08832231,0.0001496,53.2163,253.3852,102.684,257.432,6.0749e-05,6.79e-06,0.0,0 STARLINK-5192,1 54074U 22136Z   24017.88630194  .00000679  00000-0  60749-4 0  9999,2 54074  53.2163 253.3852 0001496 102.6840 257.4320 15.08832231 68821,6917.904,95.438,540.804,538.734,0.0
54074.0,STARLINK-5192,PAYLOAD,2024-01-18 19:31:40,15.08842634,0.0001508,53.2167,249.2269,109.9227,250.1927,9.2916e-05,1.191e-05,0.0,0 STARLINK-5192,1 54074U 22136Z   24018.81365961  .00001191  00000-0  92916-4 0  9991,2 54074  53.2167 249.2269 0001508 109.9227 250.1927 15.08842634 69444,6917.872,95.437,540.781,538.694,0.0
54074.0,STARLINK-5192,PAYLOAD,2024-01-18 21:07:03,15.08840243,0.0001472,53.2162,248.9256,98.4282,261.6877,0.00026794,3.979e-05,0.0,0 STARLINK-5192,1 54074U 22136Z   24018.87990128  .00003979  00000-0  26794-3 0  9992,2 54074  53.2162 248.9256 0001472  98.4282 261.6877 15.08840243 68976,6917.88,95.438,540.763,538.726,0.0
54074.0,STARLINK-5192,PAYLOAD,2024-01-19 00:17:50,15.0883026,0.0001597,53.2162,248.3289,94.0182,266.0992,0.00079857,0.00012441,0.0,0 STARLINK-5192,1 54074U 22136Z   24019.01238832  .00012441  00000-0  79857-3 0  9998,2 54074  53.2162 248.3289 0001597  94.0182 266.0992 15.08830260 69476,6917.91,95.438,540.88,538.67,0.0
54074.0,STARLINK-5192,PAYLOAD,2024-01-19 22:33:13,15.08848438,0.0001677,53.2156,244.1663,112.6021,247.5148,0.00016493,2.338e-05,0.0,0 STARLINK-5192,1 54074U 22136Z   24019.93973610  .00002338  00000-0  16493-3 0  9990,2 54074  53.2156 244.1663 0001677 112.6021 247.5148 15.08848438 69133,6917.855,95.437,540.88,538.559,0.0
54074.0,STARLINK-5192,PAYLOAD,2024-01-20 00:08:36,15.08849924,0.0001457,53.2157,243.8671,87.9281,272.1878,0.00017985,2.576e-05,0.0,0 STARLINK-5192,1 54074U 22136Z   24020.00597485  .00002576  00000-0  17985-3 0  9993,2 54074  53.2157 243.8671 0001457  87.9281 272.1878 15.08849924 69143,6917.85,95.437,540.723,538.707,0.0
54074.0,STARLINK-5192,PAYLOAD,2024-01-20 19:13:14,15.08840203,0.0001662,53.2162,240.2958,116.0725,244.0438,-5.0611e-05,-1.093e-05,0.0,0 STARLINK-5192,1 54074U 22136Z   24020.80085920 -.00001093  00000-0 -50611-4 0  9996,2 54074  53.2162 240.2958 0001662 116.0725 244.0438 15.08840203 69740,6917.88,95.438,540.895,538.595,0.0
54074.0,STARLINK-5192,PAYLOAD,2024-01-20 20:48:37,15.0883972,0.0001462,53.2162,239.9967,101.6132,258.5024,-4.3683e-05,-9.83e-06,0.0,0 STARLINK-5192,1 54074U 22136Z   24020.86710006 -.00000983  00000-0 -43683-4 0  9990,2 54074  53.2162 239.9967 0001462 101.6132 258.5024 15.08839720 69276,6917.881,95.438,540.758,538.735,0.0
54074.0,STARLINK-5192,PAYLOAD,2024-01-20 23:59:23,15.08838054,0.0001487,53.2161,239.4094,95.5165,264.5997,-3.6087e-05,-8.62e-06,0.0,0 STARLINK-5192,1 54074U 22136Z   24020.99958288 -.00000862  00000-0 -36087-4 0  9996,2 54074  53.2161 239.4094 0001487  95.5165 264.5997 15.08838054 69292,6917.886,95.438,540.78,538.723,0.0
54074.0,STARLINK-5192,PAYLOAD,2024-01-21 20:39:24,15.08851215,0.0001591,53.2158,235.5427,123.6745,236.4399,0.00014031,1.946e-05,0.0,0 STARLINK-5192,1 54074U 22136Z   24021.86069541  .00001946  00000-0  14031-3 0  9994,2 54074  53.2158 235.5427 0001591 123.6745 236.4399 15.08851215 69421,6917.846,95.437,540.812,538.61,0.0
54074.0,STARLINK-5192,PAYLOAD,2024-01-21 23:50:10,15.08851813,0.0001409,53.2153,234.95,92.7503,267.365,0.00019473,2.814e-05,0.0,0 STARLINK-5192,1 54074U 22136Z   24021.99317642  .00002814  00000-0  19473-3 0  9996,2 54074  53.2153 234.9500 0001409  92.7503 267.3650 15.08851813 69929,6917.844,95.437,540.684,538.735,0.0
54074.0,STARLINK-5192,PAYLOAD,2024-01-22 18:54:48,15.08840418,0.0001467,53.2155,231.3802,95.4173,264.6986,0.00015832,2.233e-05,0.0,0 STARLINK-5192,1 54074U 22136Z   24022.78806302  .00002233  00000-0  15832-3 0  9990,2 54074  53.2155 231.3802 0001467  95.4173 264.6986 15.08840418 70040,6917.879,95.438,540.759,538.729,0.0
54074.0,STARLINK-5192,PAYLOAD,2024-01-22 20:30:11,15.08839748,0.0001459,53.2156,231.083,94.0699,266.046,0.00013058,1.791e-05,0.0,0 STARLINK-5192,1 54074U 22136Z   24022.85430282  .00001791  00000-0  13058-3 0  9994,2 54074  53.2156 231.0830 0001459  94.0699 266.0460 15.08839748 69571,6917.881,95.438,540.755,538.737,0.0
54074.0,STARLINK-5192,PAYLOAD,2024-01-23 04:27:07,15.08840895,0.0001375,53.214,229.5985,87.5965,272.5185,0.00010335,1.357e-05,0.0,0 STARLINK-5192,1 54074U 22136Z   24023.18550230  .00001357  00000-0  10335-3 0  9990,2 54074  53.2140 229.5985 0001375  87.5965 272.5185 15.08840895 69624,6917.878,95.437,540.694,538.791,0.0
54074.0,STARLINK-5192,PAYLOAD,2024-01-23 21:56:21,15.08847322,0.0001411,53.2147,226.3269,95.8965,264.2188,7.6912e-05,9.37e-06,0.0,0 STARLINK-5192,1 54074U 22136Z   24023.91413604  .00000937  00000-0  76912-4 0  9991,2 54074  53.2147 226.3269 0001411  95.8965 264.2188 15.08847322 69739,6917.858,95.437,540.699,538.747,0.0
54074.0,STARLINK-5192,PAYLOAD,2024-01-24 02:42:31,15.08836556,0.0001435,53.2143,225.4344,89.2394,270.8762,-6.6183e-05,-1.341e-05,0.0,0 STARLINK-5192,1 54074U 22136Z   24024.11286168 -.00001341  00000-0 -66183-4 0  9998,2 54074  53.2143 225.4344 0001435  89.2394 270.8762 15.08836556 70244,6917.891,95.438,540.749,538.763,0.0
54074.0,STARLINK-5192,PAYLOAD,2024-01-24 13:50:13,15.08838959,0.0001368,53.2152,223.3531,94.5027,265.6121,7.8683e-05,9.65e-06,0.0,0 STARLINK-5192,1 54074U 22136Z   24024.57654338  .00000965  00000-0  78683-4 0  9993,2 54074  53.2152 223.3531 0001368  94.5027 265.6121 15.08838959 69839,6917.884,95.438,540.695,538.802,0.0
